API VERSION: 1.2
API SOURCE: NASA/JPL Horizons API



*******************************************************************************
Ephemeris / API_USER Sat Jul 11 19:36:35 2026 Pasadena, USA      / Horizons    
*******************************************************************************
Target body name: 2060 Chiron (1977 UB)           {source: JPL#171}
Center body name: Earth (399)                     {source: DE441}
Center-site name: GEOCENTRIC
*******************************************************************************
Start time      : A.D. 1920-Jan-01 00:00:00.0000 UT      
Stop  time      : A.D. 1925-Jan-01 00:00:00.0000 UT      
Step-size       : 2880 minutes
*******************************************************************************
Target pole/equ : undefined
Target radii    : 83. km                                                       
Center geodetic : 0.0, 0.0, -6378.137             {E-lon(deg),Lat(deg),Alt(km)}
Center cylindric: 0.0, 0.0, 0.0                   {E-lon(deg),Dxy(km),Dz(km)}
Center pole/equ : ITRF93                          {East-longitude positive}
Center radii    : 6378.137, 6378.137, 6356.752 km {Equator_a, b, pole_c}       
Target primary  : Sun
Vis. interferer : MOON (R_eq= 1737.400) km        {source: DE441}
Rel. light bend : Sun                             {source: DE441}
Rel. lght bnd GM: 1.3271E+11 km^3/s^2                                          
Small-body perts: Yes                             {source: SB441-N16}
Atmos refraction: NO (AIRLESS)
RA format       : DEG
Time format     : CAL 
Calendar mode   : Mixed Julian/Gregorian
EOP file        : eop.260710.p261006                                           
EOP coverage    : DATA-BASED 1962-JAN-20 TO 2026-JUL-10. PREDICTS-> 2026-OCT-05
Units conversion: 1 au= 149597870.700 km, c= 299792.458 km/s, 1 day= 86400.0 s 
Table cut-offs 1: Elevation (-90.0deg=NO ),Airmass (>38.000=NO), Daylight (NO )
Table cut-offs 2: Solar elongation (  0.0,180.0=NO ),Local Hour Angle( 0.0=NO )
Table cut-offs 3: RA/DEC angular rate (     0.0=NO )                           
*******************************************************************************
Initial IAU76/J2000 heliocentric ecliptic osculating elements (au, days, deg.):
  EPOCH=  2457916.5 ! 2017-Jun-12.00 (TDB)         Residual RMS= .19933        
   EC= .3824171374703196   QR= 8.427522999110739   TP= 2450143.7110841358      
   OM= 209.2011323125998   W=  339.6529896907077   IN= 6.94959060447848        
  Equivalent ICRF heliocentric cartesian coordinates (au, au/d):
   X= 1.843374627977423E+01  Y=-1.877818593473934E+00  Z= 5.548833989583914E-01
  VX= 7.316266023833624E-04 VY= 2.960187278972600E-03 VZ= 9.710586201315230E-04
Asteroid physical parameters (km, seconds, rotational period in hours):        
   GM= n.a.                RAD= 83.                ROTPER= 5.918               
   H= 5.54                 G= .150                 B-V= .704                   
                           ALBEDO= .150            STYP= Cb                    
*******************************************************************************
 Date__(UT)__HR:MN        ObsEcLon    ObsEcLat
**********************************************
$$SOE
 1920-Oct-15 00:00       7.5995894   2.5284715
 1920-Oct-17 00:00       7.5127551   2.5249075
 1920-Oct-19 00:00       7.4270757   2.5211781
 1920-Oct-21 00:00       7.3426711   2.5172861
 1920-Oct-23 00:00       7.2596665   2.5132345
 1920-Oct-25 00:00       7.1782014   2.5090271
 1920-Oct-27 00:00       7.0984349   2.5046682
 1920-Oct-29 00:00       7.0205304   2.5001622
 1920-Oct-31 00:00       6.9446146   2.4955140
 1920-Nov-02 00:00       6.8707631   2.4907283
 1920-Nov-04 00:00       6.7990496   2.4858097
 1920-Nov-06 00:00       6.7295939   2.4807624
 1920-Nov-08 00:00       6.6625548   2.4755906
 1920-Nov-10 00:00       6.5980907   2.4702986
 1920-Nov-12 00:00       6.5363293   2.4648909
 1920-Nov-14 00:00       6.4773634   2.4593723
 1920-Nov-16 00:00       6.4212661   2.4537483
 1920-Nov-18 00:00       6.3681080   2.4480244
 1920-Nov-20 00:00       6.3179658   2.4422065
 1920-Nov-22 00:00       6.2709295   2.4363009
 1920-Nov-24 00:00       6.2271029   2.4303141
 1920-Nov-26 00:00       6.1865846   2.4242528
 1920-Nov-28 00:00       6.1494248   2.4181238
 1920-Nov-30 00:00       6.1156212   2.4119335
 1920-Dec-02 00:00       6.0851885   2.4056876
 1920-Dec-04 00:00       6.0581997   2.3993917
 1920-Dec-06 00:00       6.0347516   2.3930511
 1920-Dec-08 00:00       6.0149219   2.3866712
 1920-Dec-10 00:00       5.9987530   2.3802572
 1920-Dec-12 00:00       5.9862574   2.3738149
 1920-Dec-14 00:00       5.9774328   2.3673499
 1920-Dec-16 00:00       5.9722780   2.3608683
 1920-Dec-18 00:00       5.9708013   2.3543761
 1920-Dec-20 00:00       5.9730243   2.3478794
 1920-Dec-22 00:00       5.9789770   2.3413846
 1920-Dec-24 00:00       5.9886764   2.3348978
 1920-Dec-26 00:00       6.0020875   2.3284251
 1920-Dec-28 00:00       6.0191294   2.3219720
 1920-Dec-30 00:00       6.0397559   2.3155433
 1921-Jan-01 00:00       6.0639865   2.3091435
 1921-Jan-03 00:00       6.0918498   2.3027767
 1921-Jan-05 00:00       6.1233429   2.2964470
 1921-Jan-07 00:00       6.1584285   2.2901586
 1921-Jan-09 00:00       6.1970469   2.2839158
 1921-Jan-11 00:00       6.2391314   2.2777230
 1921-Jan-13 00:00       6.2846212   2.2715845
 1921-Jan-15 00:00       6.3334689   2.2655049
 1921-Jan-17 00:00       6.3856407   2.2594886
 1921-Jan-19 00:00       6.4411057   2.2535400
 1921-Jan-21 00:00       6.4998126   2.2476636
 1921-Jan-23 00:00       6.5616614   2.2418633
 1921-Jan-25 00:00       6.6265213   2.2361426
 1921-Jan-27 00:00       6.6943095   2.2305043
 1921-Jan-29 00:00       6.7650080   2.2249505
 1921-Jan-31 00:00       6.8385955   2.2194835
 1921-Feb-02 00:00       6.9150117   2.2141054
 1921-Feb-04 00:00       6.9941659   2.2088185
 1921-Feb-06 00:00       7.0759539   2.2036251
 1921-Feb-08 00:00       7.1602721   2.1985276
 1921-Feb-10 00:00       7.2470275   2.1935286
 1921-Feb-12 00:00       7.3361439   2.1886306
 1921-Feb-14 00:00       7.4275570   2.1838361
 1921-Feb-16 00:00       7.5211984   2.1791477
 1921-Feb-18 00:00       7.6169718   2.1745676
 1921-Feb-20 00:00       7.7147411   2.1700977
 1921-Feb-22 00:00       7.8143607   2.1657395
 1921-Feb-24 00:00       7.9157403   2.1614937
 1921-Feb-26 00:00       8.0188439   2.1573607
 1921-Feb-28 00:00       8.1236224   2.1533408
 1921-Mar-02 00:00       8.2299839   2.1494344
 1921-Mar-04 00:00       8.3378118   2.1456420
 1921-Mar-06 00:00       8.4469846   2.1419644
 1921-Mar-08 00:00       8.5573874   2.1384024
 1921-Mar-10 00:00       8.6689197   2.1349569
 1921-Mar-12 00:00       8.7814991   2.1316289
 1921-Mar-14 00:00       8.8950519   2.1284196
 1921-Mar-16 00:00       9.0094907   2.1253299
 1921-Mar-18 00:00       9.1246943   2.1223606
 1921-Mar-20 00:00       9.2405144   2.1195120
 1921-Mar-22 00:00       9.3568175   2.1167841
 1921-Mar-24 00:00       9.4735264   2.1141767
 1921-Mar-26 00:00       9.5906015   2.1116900
 1921-Mar-28 00:00       9.7079798   2.1093271
 1921-Mar-30 00:00       9.8255459   2.1070968
 1921-Apr-01 00:00       9.9431482   2.1049610
 1921-Apr-03 00:00      10.0607378   2.1029071
 1921-Apr-05 00:00      10.1781881   2.1009847
 1921-Apr-07 00:00      10.2953897   2.0991849
 1921-Apr-09 00:00      10.4122669   2.0975024
 1921-Apr-11 00:00      10.5287491   2.0959359
 1921-Apr-13 00:00      10.6447408   2.0944844
 1921-Apr-15 00:00      10.7601092   2.0931474
 1921-Apr-17 00:00      10.8747116   2.0919236
 1921-Apr-19 00:00      10.9884418   2.0908117
 1921-Apr-21 00:00      11.1012449   2.0898097
 1921-Apr-23 00:00      11.2130825   2.0889155
 1921-Apr-25 00:00      11.3238869   2.0881270
 1921-Apr-27 00:00      11.4335544   2.0874425
 1921-Apr-29 00:00      11.5419684   2.0868603
 1921-May-01 00:00      11.6490201   2.0863791
 1921-May-03 00:00      11.7546163   2.0859976
 1921-May-05 00:00      11.8586810   2.0857147
 1921-May-07 00:00      11.9611536   2.0855293
 1921-May-09 00:00      12.0619713   2.0854405
 1921-May-11 00:00      12.1610374   2.0854470
 1921-May-13 00:00      12.2582178   2.0855474
 1921-May-15 00:00      12.3533899   2.0857393
 1921-May-17 00:00      12.4464839   2.0860203
 1921-May-19 00:00      12.5374713   2.0863873
 1921-May-21 00:00      12.6263198   2.0868373
 1921-May-23 00:00      12.7129641   2.0873674
 1921-May-25 00:00      12.7973109   2.0879748
 1921-May-27 00:00      12.8792614   2.0886571
 1921-May-29 00:00      12.9587287   2.0894119
 1921-May-31 00:00      13.0356438   2.0902371
 1921-Jun-02 00:00      13.1099556   2.0911305
 1921-Jun-04 00:00      13.1816246   2.0920901
 1921-Jun-06 00:00      13.2506029   2.0931139
 1921-Jun-08 00:00      13.3168025   2.0941995
 1921-Jun-10 00:00      13.3801031   2.0953442
 1921-Jun-12 00:00      13.4404176   2.0965445
 1921-Jun-14 00:00      13.4977222   2.0977964
 1921-Jun-16 00:00      13.5520186   2.0990960
 1921-Jun-18 00:00      13.6032889   2.1004391
 1921-Jun-20 00:00      13.6514829   2.1018217
 1921-Jun-22 00:00      13.6965320   2.1032403
 1921-Jun-24 00:00      13.7383691   2.1046912
 1921-Jun-26 00:00      13.7769432   2.1061711
 1921-Jun-28 00:00      13.8122224   2.1076770
 1921-Jun-30 00:00      13.8441924   2.1092055
 1921-Jul-02 00:00      13.8728459   2.1107536
 1921-Jul-04 00:00      13.8981613   2.1123180
 1921-Jul-06 00:00      13.9200763   2.1138954
 1921-Jul-08 00:00      13.9385067   2.1154815
 1921-Jul-10 00:00      13.9534200   2.1170717
 1921-Jul-12 00:00      13.9648507   2.1186609
 1921-Jul-14 00:00      13.9728408   2.1202438
 1921-Jul-16 00:00      13.9774020   2.1218154
 1921-Jul-18 00:00      13.9785187   2.1233711
 1921-Jul-20 00:00      13.9761663   2.1249061
 1921-Jul-22 00:00      13.9703292   2.1264164
 1921-Jul-24 00:00      13.9610106   2.1278977
 1921-Jul-26 00:00      13.9482337   2.1293463
 1921-Jul-28 00:00      13.9320374   2.1307581
